{
"type": "FeatureCollection",
"name": "CommercialStreets",
"crs": { "type": "name", "properties": { "name": "urn:ogc:def:crs:OGC:1.3:CRS84" } },
"features": [
{ "type": "Feature", "properties": { "fid": 1, "Name": "Lombard" }, "geometry": { "type": "MultiLineString", "coordinates": [ [ [ -122.444318620363561, 37.798790244611091 ], [ -122.425256719879144, 37.801205965061463 ] ] ] } },
{ "type": "Feature", "properties": { "fid": 2, "Name": "Chestnut" }, "geometry": { "type": "MultiLineString", "coordinates": [ [ [ -122.444515993641062, 37.79976547264679 ], [ -122.436273911321109, 37.800814143536229 ] ] ] } },
{ "type": "Feature", "properties": { "fid": 3, "Name": "Fillmore-Marina" }, "geometry": { "type": "MultiLineString", "coordinates": [ [ [ -122.436260689281326, 37.80080919889884 ], [ -122.435489829189265, 37.797089000207073 ] ] ] } },
{ "type": "Feature", "properties": { "fid": 4, "Name": "Union" }, "geometry": { "type": "MultiLineString", "coordinates": [ [ [ -122.437137704975783, 37.796879340357222 ], [ -122.423982146771408, 37.79855245260952 ] ] ] } },
{ "type": "Feature", "properties": { "fid": 5, "Name": "Polk" }, "geometry": { "type": "MultiLineString", "coordinates": [ [ [ -122.422525217091859, 37.799693671690363 ], [ -122.419086349628927, 37.782629696650659 ] ] ] } },
{ "type": "Feature", "properties": { "fid": 6, "Name": "Columbus" }, "geometry": { "type": "MultiLineString", "coordinates": [ [ [ -122.416051424644792, 37.804355945439006 ], [ -122.405512936769284, 37.797064589540334 ] ] ] } },
{ "type": "Feature", "properties": { "fid": 7, "Name": "Pacific Nob Hill" }, "geometry": { "type": "MultiLineString", "coordinates": [ [ [ -122.421582756599932, 37.795027344536024 ], [ -122.41500545584833, 37.795877317736064 ] ] ] } },
{ "type": "Feature", "properties": { "fid": 8, "Name": "Fillmore" }, "geometry": { "type": "MultiLineString", "coordinates": [ [ [ -122.43455772222211, 37.792471636029049 ], [ -122.431574643431745, 37.777699924335849 ] ] ] } },
{ "type": "Feature", "properties": { "fid": 9, "Name": "Market Lower" }, "geometry": { "type": "MultiLineString", "coordinates": [ [ [ -122.408952160069177, 37.783287851985385 ], [ -122.394747580295643, 37.794479717261993 ] ] ] } },
{ "type": "Feature", "properties": { "fid": 10, "Name": "Market Mid" }, "geometry": { "type": "MultiLineString", "coordinates": [ [ [ -122.412512257213038, 37.780478511228502 ], [ -122.422619691744984, 37.772502816483815 ] ] ] } },
{ "type": "Feature", "properties": { "fid": 11, "Name": "Market Upper" }, "geometry": { "type": "MultiLineString", "coordinates": [ [ [ -122.435187963403521, 37.762670707180853 ], [ -122.433074472222003, 37.764195712251251 ], [ -122.431025472111685, 37.765867985508606 ], [ -122.428948567600187, 37.7675044586532 ], [ -122.42339676232811, 37.771885643271247 ] ] ] } },
{ "type": "Feature", "properties": { "fid": 12, "Name": "Valencia" }, "geometry": { "type": "MultiLineString", "coordinates": [ [ [ -122.422619691744984, 37.772502816483815 ], [ -122.420278831015068, 37.748125282576993 ] ] ] } },
{ "type": "Feature", "properties": { "fid": 13, "Name": "24th Street" }, "geometry": { "type": "MultiLineString", "coordinates": [ [ [ -122.420664801143431, 37.752103644821666 ], [ -122.406510133432619, 37.752953763808215 ] ] ] } },
{ "type": "Feature", "properties": { "fid": 14, "Name": "Mission Inner" }, "geometry": { "type": "MultiLineString", "coordinates": [ [ [ -122.419825235398875, 37.76667360054762 ], [ -122.418093629941552, 37.748605359367922 ], [ -122.418096638140867, 37.748478319328953 ], [ -122.418221171733265, 37.748165688174765 ] ] ] } },
{ "type": "Feature", "properties": { "fid": 15, "Name": "24th Noe Valley" }, "geometry": { "type": "MultiLineString", "coordinates": [ [ [ -122.436298714740161, 37.751153220865625 ], [ -122.426332889104899, 37.751771294897182 ] ] ] } },
{ "type": "Feature", "properties": { "fid": 16, "Name": "Church Noe Valley" }, "geometry": { "type": "MultiLineString", "coordinates": [ [ [ -122.427437414570988, 37.751704729703924 ], [ -122.426518203635865, 37.742097909420778 ] ] ] } },
{ "type": "Feature", "properties": { "fid": 17, "Name": "Mission Bernal" }, "geometry": { "type": "MultiLineString", "coordinates": [ [ [ -122.418221171733265, 37.748165688174765 ], [ -122.423089907058127, 37.740641886141582 ] ] ] } },
{ "type": "Feature", "properties": { "fid": 18, "Name": "Cortland" }, "geometry": { "type": "MultiLineString", "coordinates": [ [ [ -122.419165314667367, 37.739533441141731 ], [ -122.418460578729466, 37.73924894165328 ], [ -122.417779082422911, 37.739183665180001 ], [ -122.417138819979158, 37.739121436840755 ], [ -122.416519600446449, 37.739061698015981 ], [ -122.415899480867765, 37.739001868749853 ], [ -122.415183628137697, 37.738932911945298 ], [ -122.414665980837455, 37.738882850696577 ], [ -122.414558860141426, 37.738881488418087 ], [ -122.413937709523751, 37.738930423276408 ], [ -122.413311823702145, 37.738982049787232 ], [ -122.413185623568097, 37.738997596574755 ], [ -122.413055651195293, 37.739074767097904 ] ] ] } },
{ "type": "Feature", "properties": { "fid": 19, "Name": "Mission College Hill" }, "geometry": { "type": "MultiLineString", "coordinates": [ [ [ -122.424040149794919, 37.737406246004888 ], [ -122.424063400760659, 37.737239728374298 ], [ -122.424702562857249, 37.73536986968255 ] ] ] } },
{ "type": "Feature", "properties": { "fid": 20, "Name": "Mission Outer" }, "geometry": { "type": "MultiLineString", "coordinates": [ [ [ -122.42930439837528, 37.730742172074088 ], [ -122.43129384489707, 37.72872954743687 ], [ -122.432807824254908, 37.727315041907119 ], [ -122.4371495255008, 37.721575000361433 ], [ -122.437461141095795, 37.721163547474006 ], [ -122.438329414831628, 37.720015524318427 ], [ -122.438863486926209, 37.719309359097146 ], [ -122.440106608015654, 37.717665308411739 ], [ -122.441895526256161, 37.715308254627239 ], [ -122.445528473473345, 37.711886569207195 ], [ -122.448930951233052, 37.710074034901325 ], [ -122.454281126921401, 37.708255959376814 ] ] ] } },
{ "type": "Feature", "properties": { "fid": 21, "Name": "Ocean Ave" }, "geometry": { "type": "MultiLineString", "coordinates": [ [ [ -122.474206348258406, 37.732119998218487 ], [ -122.472147106988729, 37.731200566241498 ], [ -122.471797436754656, 37.731032353894165 ], [ -122.469341915033937, 37.729976874597163 ], [ -122.468920012847704, 37.729799223786742 ], [ -122.468610985031205, 37.729598560498587 ], [ -122.468486845189361, 37.729512945286743 ], [ -122.468207609850495, 37.729221281570474 ], [ -122.468077262813679, 37.728974766288594 ], [ -122.467739343716232, 37.728329065564054 ], [ -122.467542217888877, 37.728020271131847 ], [ -122.467330680514777, 37.727772037109908 ], [ -122.466681387337431, 37.727237764853683 ], [ -122.466073200414499, 37.726785002871992 ], [ -122.465675408894214, 37.726555516597863 ], [ -122.465312620426729, 37.726405274753823 ], [ -122.462212504771216, 37.725265706677753 ], [ -122.46121054864193, 37.724949700242234 ], [ -122.452331562128052, 37.723080242360403 ], [ -122.451772390451126, 37.722998768512618 ], [ -122.451595167306905, 37.722991783066853 ], [ -122.449558621020884, 37.722961318761726 ] ] ] } },
{ "type": "Feature", "properties": { "fid": 22, "Name": "Taraval" }, "geometry": { "type": "MultiLineString", "coordinates": [ [ [ -122.505690988965384, 37.741716204423469 ], [ -122.468073292315495, 37.743383944589205 ] ] ] } },
{ "type": "Feature", "properties": { "fid": 23, "Name": "West Portal" }, "geometry": { "type": "MultiLineString", "coordinates": [ [ [ -122.465829025280257, 37.740891974184898 ], [ -122.466201858985258, 37.740429723139094 ], [ -122.466991015171502, 37.739723498642277 ], [ -122.469056679271716, 37.737969880889636 ], [ -122.469937055281363, 37.737248579703035 ], [ -122.470574089290906, 37.736589027966666 ] ] ] } },
{ "type": "Feature", "properties": { "fid": 24, "Name": "Noriega" }, "geometry": { "type": "MultiLineString", "coordinates": [ [ [ -122.505405789205142, 37.752964108722878 ], [ -122.476423523089764, 37.754242187173261 ] ] ] } },
{ "type": "Feature", "properties": { "fid": 25, "Name": "Judah" }, "geometry": { "type": "MultiLineString", "coordinates": [ [ [ -122.505928111684383, 37.760424426479581 ], [ -122.485568386796771, 37.761322821580052 ] ] ] } },
{ "type": "Feature", "properties": { "fid": 26, "Name": "Irving" }, "geometry": { "type": "MultiLineString", "coordinates": [ [ [ -122.485698891964631, 37.763184096271871 ], [ -122.462030542208424, 37.764224836944521 ] ] ] } },
{ "type": "Feature", "properties": { "fid": 27, "Name": "9th Ave" }, "geometry": { "type": "MultiLineString", "coordinates": [ [ [ -122.466442491093048, 37.765924661572981 ], [ -122.466180556678893, 37.762175040924994 ] ] ] } },
{ "type": "Feature", "properties": { "fid": 28, "Name": "Divisadero" }, "geometry": { "type": "MultiLineString", "coordinates": [ [ [ -122.438365501207798, 37.777794188712534 ], [ -122.437045613316769, 37.771267423864117 ] ] ] } },
{ "type": "Feature", "properties": { "fid": 29, "Name": "Geary Blvd" }, "geometry": { "type": "MultiLineString", "coordinates": [ [ [ -122.486878047231855, 37.779993539965702 ], [ -122.458858662126829, 37.781257059946142 ], [ -122.456295740992644, 37.781381281829134 ], [ -122.455523986449847, 37.781431139196215 ], [ -122.450092303497939, 37.782116602321025 ], [ -122.448112979051373, 37.782365676885306 ], [ -122.447301514150965, 37.782391641121819 ], [ -122.445820512833379, 37.782488030711249 ], [ -122.442793101234685, 37.782885335502428 ], [ -122.439480382398486, 37.783308486701578 ], [ -122.438903632364955, 37.783385650944261 ], [ -122.43822785076452, 37.783645076498971 ], [ -122.437847944588455, 37.783717636867777 ], [ -122.434562100165834, 37.784151862499819 ], [ -122.431204946668785, 37.784568240183269 ], [ -122.427988928186977, 37.784953878637268 ] ] ] } },
{ "type": "Feature", "properties": { "fid": 30, "Name": "Clement" }, "geometry": { "type": "MultiLineString", "coordinates": [ [ [ -122.470845996705222, 37.782652400666848 ], [ -122.458998402124578, 37.783188663897043 ] ] ] } },
{ "type": "Feature", "properties": { "fid": 31, "Name": "Sacramento Pacific Heights" }, "geometry": { "type": "MultiLineString", "coordinates": [ [ [ -122.453592852799986, 37.787344110010444 ], [ -122.445588637490175, 37.788363751795337 ] ] ] } },
{ "type": "Feature", "properties": { "fid": 32, "Name": "San Bruno" }, "geometry": { "type": "MultiLineString", "coordinates": [ [ [ -122.405909422504294, 37.732963248522999 ], [ -122.405607549170469, 37.732438656829679 ], [ -122.405085875856869, 37.731236924585588 ], [ -122.401421556604106, 37.722369027741017 ] ] ] } },
{ "type": "Feature", "properties": { "fid": 33, "Name": "3rd Street Bayview" }, "geometry": { "type": "MultiLineString", "coordinates": [ [ [ -122.3882003450654, 37.741889062128642 ], [ -122.389310057394823, 37.738741928980964 ], [ -122.392072955362337, 37.730855182070641 ], [ -122.392348748991409, 37.730066817480036 ], [ -122.392624535658825, 37.729278453061283 ] ] ] } },
{ "type": "Feature", "properties": { "fid": 34, "Name": "Folsom SoMa" }, "geometry": { "type": "MultiLineString", "coordinates": [ [ [ -122.412225007273221, 37.773284779748366 ], [ -122.405615267858252, 37.778505103841908 ] ] ] } },
{ "type": "Feature", "properties": { "fid": 35, "Name": "6th Street" }, "geometry": { "type": "MultiLineString", "coordinates": [ [ [ -122.410292027906436, 37.782230574681357 ], [ -122.405615267858252, 37.778505103841908 ] ] ] } },
{ "type": "Feature", "properties": { "fid": 36, "Name": "Haight Upper" }, "geometry": { "type": "MultiLineString", "coordinates": [ [ [ -122.453536876506192, 37.769165223878367 ], [ -122.443649087290311, 37.770426369766234 ] ] ] } },
{ "type": "Feature", "properties": { "fid": 37, "Name": "Haight Lower" }, "geometry": { "type": "MultiLineString", "coordinates": [ [ [ -122.437045613316769, 37.771267423864117 ], [ -122.428802102966245, 37.772315845351564 ] ] ] } },
{ "type": "Feature", "properties": { "fid": 38, "Name": "Hayes" }, "geometry": { "type": "MultiLineString", "coordinates": [ [ [ -122.426263346030737, 37.776464305289231 ], [ -122.419693566868659, 37.777299855079818 ] ] ] } },
{ "type": "Feature", "properties": { "fid": 39, "Name": "Grant" }, "geometry": { "type": "MultiLineString", "coordinates": [ [ [ -122.404583318194412, 37.786730564600497 ], [ -122.40486893551828, 37.786904926823816 ], [ -122.405579092489219, 37.790465163314188 ], [ -122.405568798456756, 37.790657859213262 ], [ -122.406129484456386, 37.793379703958387 ], [ -122.406304986994314, 37.79426362572493 ], [ -122.407769591374986, 37.801570825078947 ] ] ] } },
{ "type": "Feature", "properties": { "fid": 40, "Name": "Stockton Union Square" }, "geometry": { "type": "MultiLineString", "coordinates": [ [ [ -122.407148806210799, 37.79036631130402 ], [ -122.406956988131924, 37.789433681235735 ], [ -122.406225599587842, 37.785751061246515 ], [ -122.40583101241009, 37.78574398774628 ] ] ] } },
{ "type": "Feature", "properties": { "fid": 41, "Name": "Ellis St Union Square" }, "geometry": { "type": "MultiLineString", "coordinates": [ [ [ -122.411139802219338, 37.785074595551066 ], [ -122.40583101241009, 37.78574398774628 ] ] ] } },
{ "type": "Feature", "properties": { "fid": 42, "Name": "O'Farrell Union Square" }, "geometry": { "type": "MultiLineString", "coordinates": [ [ [ -122.411325582960572, 37.785996234962489 ], [ -122.404849901874684, 37.786809952733719 ], [ -122.404583318194412, 37.786730564600497 ] ] ] } },
{ "type": "Feature", "properties": { "fid": 43, "Name": "5th Street" }, "geometry": { "type": "MultiLineString", "coordinates": [ [ [ -122.408053332449086, 37.783986540220887 ], [ -122.403920882825417, 37.780699048541955 ] ] ] } },
{ "type": "Feature", "properties": { "fid": 44, "Name": "4th Street" }, "geometry": { "type": "MultiLineString", "coordinates": [ [ [ -122.40583101241009, 37.78574398774628 ], [ -122.401696204774581, 37.782452741647091 ] ] ] } },
{ "type": "Feature", "properties": { "fid": 45, "Name": "3rd Street SoMa" }, "geometry": { "type": "MultiLineString", "coordinates": [ [ [ -122.40343080229718, 37.787641847580829 ], [ -122.403342642210177, 37.787274627242624 ], [ -122.397942940149846, 37.782997896429634 ] ] ] } },
{ "type": "Feature", "properties": { "fid": 46, "Name": "New Montgomery" }, "geometry": { "type": "MultiLineString", "coordinates": [ [ [ -122.402065730612662, 37.788721151396338 ], [ -122.398977169380586, 37.786209491425474 ] ] ] } },
{ "type": "Feature", "properties": { "fid": 47, "Name": "2nd Street" }, "geometry": { "type": "MultiLineString", "coordinates": [ [ [ -122.401362276837759, 37.789259375297739 ], [ -122.395882488163892, 37.784891981257168 ] ] ] } },
{ "type": "Feature", "properties": { "fid": 48, "Name": "Kearny Street" }, "geometry": { "type": "MultiLineString", "coordinates": [ [ [ -122.40421983606285, 37.791690582733068 ], [ -122.40343080229718, 37.787641847580829 ] ] ] } },
{ "type": "Feature", "properties": { "fid": 49, "Name": "Kearny St Chinatown" }, "geometry": { "type": "MultiLineString", "coordinates": [ [ [ -122.404613422402562, 37.793565083200264 ], [ -122.405481091354758, 37.797902803088085 ], [ -122.405473071207894, 37.798016955677475 ] ] ] } },
{ "type": "Feature", "properties": { "fid": 50, "Name": "Stockton St Chinatown" }, "geometry": { "type": "MultiLineString", "coordinates": [ [ [ -122.407727187604266, 37.793178300824465 ], [ -122.409369118222003, 37.801370654804373 ] ] ] } },
{ "type": "Feature", "properties": { "fid": 51, "Name": "Powell St Union Square" }, "geometry": { "type": "MultiLineString", "coordinates": [ [ [ -122.408595045826004, 37.789225613650146 ], [ -122.40769847255585, 37.784698610387821 ] ] ] } },
{ "type": "Feature", "properties": { "fid": 52, "Name": "Powell St Chinatown" }, "geometry": { "type": "MultiLineString", "coordinates": [ [ [ -122.410456159021663, 37.798372702707177 ], [ -122.410075971860905, 37.79649276120638 ] ] ] } },
{ "type": "Feature", "properties": { "fid": 53, "Name": "Broadway" }, "geometry": { "type": "MultiLineString", "coordinates": [ [ [ -122.410263526111848, 37.797420184710319 ], [ -122.403863018868876, 37.798222970461119 ] ] ] } },
{ "type": "Feature", "properties": { "fid": 54, "Name": "Powell St North Beach" }, "geometry": { "type": "MultiLineString", "coordinates": [ [ [ -122.410833640096101, 37.800239158404821 ], [ -122.411202593485896, 37.802100724704452 ] ] ] } },
{ "type": "Feature", "properties": { "fid": 55, "Name": "Montgomery Jackson Square" }, "geometry": { "type": "MultiLineString", "coordinates": [ [ [ -122.40331694613019, 37.795531831619869 ], [ -122.403675977447023, 37.797298103754194 ] ] ] } },
{ "type": "Feature", "properties": { "fid": 56, "Name": "Kackson St Chinatown" }, "geometry": { "type": "MultiLineString", "coordinates": [ [ [ -122.409898752678089, 37.795616423661436 ], [ -122.405142978517944, 37.796210953399388 ] ] ] } },
{ "type": "Feature", "properties": { "fid": 57, "Name": "Jackson St Jackson Square" }, "geometry": { "type": "MultiLineString", "coordinates": [ [ [ -122.404412161999318, 37.796302097355735 ], [ -122.401853391682877, 37.796626163744271 ] ] ] } },
{ "type": "Feature", "properties": { "fid": 58, "Name": "Pcaific St Chinatown" }, "geometry": { "type": "MultiLineString", "coordinates": [ [ [ -122.410075971860905, 37.79649276120638 ], [ -122.405512936769284, 37.797064589540334 ] ] ] } },
{ "type": "Feature", "properties": { "fid": 59, "Name": "Pacific St Jackson Square" }, "geometry": { "type": "MultiLineString", "coordinates": [ [ [ -122.403675977447023, 37.797298103754194 ], [ -122.402040983882799, 37.797504943498154 ] ] ] } },
{ "type": "Feature", "properties": { "fid": 60, "Name": "18th St Potrero" }, "geometry": { "type": "MultiLineString", "coordinates": [ [ [ -122.397494998717434, 37.762521202182739 ], [ -122.395561309929533, 37.762637924411599 ] ] ] } },
{ "type": "Feature", "properties": { "fid": 61, "Name": "20th St Potrero" }, "geometry": { "type": "MultiLineString", "coordinates": [ [ [ -122.398215564875855, 37.759908950131944 ], [ -122.396283884223593, 37.760025690888114 ] ] ] } },
{ "type": "Feature", "properties": { "fid": 62, "Name": "Castro" }, "geometry": { "type": "MultiLineString", "coordinates": [ [ [ -122.435187963403521, 37.762670707180853 ], [ -122.435140826339392, 37.762413603517871 ], [ -122.434853682082647, 37.759289169976327 ] ] ] } },
{ "type": "Feature", "properties": { "fid": 63, "Name": "3rd St Dogpatch" }, "geometry": { "type": "MultiLineString", "coordinates": [ [ [ -122.388851284599724, 37.764321834269779 ], [ -122.388737999503803, 37.763048278089464 ], [ -122.388684017444987, 37.761766443551004 ], [ -122.388556400813002, 37.760491008454572 ], [ -122.388315531267637, 37.757939704308981 ], [ -122.388123957880026, 37.756620493183483 ], [ -122.388001121733112, 37.755389884241943 ] ] ] } },
{ "type": "Feature", "properties": { "fid": 64, "Name": "Clement" }, "geometry": { "type": "MultiLineString", "coordinates": [ [ [ -122.485945327857991, 37.78197462044578 ], [ -122.481658960437628, 37.782168142648288 ] ] ] } },
{ "type": "Feature", "properties": { "fid": 65, "Name": "Clement" }, "geometry": { "type": "MultiLineString", "coordinates": [ [ [ -122.480039450825402, 37.782237142644128 ], [ -122.478443704232731, 37.782309436040194 ] ] ] } },
{ "type": "Feature", "properties": { "fid": 66, "Name": "Divisadero" }, "geometry": { "type": "MultiLineString", "coordinates": [ [ [ -122.440623619960959, 37.788995258625967 ], [ -122.439867211387323, 37.785248213403733 ] ] ] } },
{ "type": "Feature", "properties": { "fid": 67, "Name": "3rd Street Bayview" }, "geometry": { "type": "MultiLineString", "coordinates": [ [ [ -122.395622761677714, 37.722431603123809 ], [ -122.395943827664297, 37.721715879511969 ], [ -122.396272843205381, 37.720981529315011 ] ] ] } },
{ "type": "Feature", "properties": { "fid": 68, "Name": null }, "geometry": { "type": "MultiLineString", "coordinates": [ [ [ -122.449958131513469, 37.765800028900259 ], [ -122.450194773165222, 37.766972506232577 ] ] ] } }
]
}
