{
"type": "FeatureCollection",
"name": "Hazards",
"crs": { "type": "name", "properties": { "name": "urn:ogc:def:crs:OGC:1.3:CRS84" } },
"features": [
{ "type": "Feature", "properties": { "fid": 2 }, "geometry": { "type": "MultiLineString", "coordinates": [ [ [ -122.479895429100395, 37.770495877763366 ], [ -122.479463554932849, 37.769876966049615 ] ] ] } },
{ "type": "Feature", "properties": { "fid": 3 }, "geometry": { "type": "MultiLineString", "coordinates": [ [ [ -122.455527926482105, 37.77031175587566 ], [ -122.455273523582349, 37.770360709467816 ] ] ] } },
{ "type": "Feature", "properties": { "fid": 4 }, "geometry": { "type": "MultiLineString", "coordinates": [ [ [ -122.45411733727363, 37.771462867352867 ], [ -122.453872473458574, 37.771577916594708 ] ] ] } },
{ "type": "Feature", "properties": { "fid": 5 }, "geometry": { "type": "MultiLineString", "coordinates": [ [ [ -122.446069542332609, 37.772974523916396 ], [ -122.445762632086613, 37.773013991785447 ] ] ] } },
{ "type": "Feature", "properties": { "fid": 6 }, "geometry": { "type": "MultiLineString", "coordinates": [ [ [ -122.437767469531309, 37.774041857511619 ], [ -122.436520599266856, 37.774202105713094 ] ] ] } },
{ "type": "Feature", "properties": { "fid": 7 }, "geometry": { "type": "MultiLineString", "coordinates": [ [ [ -122.432729961479225, 37.733404609896247 ], [ -122.432974117103285, 37.733310825436007 ] ] ] } },
{ "type": "Feature", "properties": { "fid": 8 }, "geometry": { "type": "MultiLineString", "coordinates": [ [ [ -122.386139150904668, 37.745868028630817 ], [ -122.38611154140456, 37.745581266169502 ], [ -122.386012690609462, 37.745461777340878 ] ] ] } },
{ "type": "Feature", "properties": { "fid": 9 }, "geometry": { "type": "MultiLineString", "coordinates": [ [ [ -122.376888841499891, 37.740145156708238 ], [ -122.379109649564583, 37.737680292952952 ] ] ] } },
{ "type": "Feature", "properties": { "fid": 10 }, "geometry": { "type": "MultiLineString", "coordinates": [ [ [ -122.425999711506009, 37.806902467136574 ], [ -122.425780197835479, 37.806714935644216 ], [ -122.425627949219276, 37.806456467167301 ], [ -122.425487611756694, 37.806009958715933 ], [ -122.425298565133119, 37.805077901814691 ], [ -122.425086480986437, 37.805104884143645 ] ] ] } },
{ "type": "Feature", "properties": { "fid": 11 }, "geometry": { "type": "MultiLineString", "coordinates": [ [ [ -122.506744994948434, 37.735686862062323 ], [ -122.506717429695129, 37.735469756982802 ] ] ] } },
{ "type": "Feature", "properties": { "fid": 12 }, "geometry": { "type": "MultiLineString", "coordinates": [ [ [ -122.431888825350228, 37.770887500727596 ], [ -122.431904326310985, 37.770964425678265 ], [ -122.432017927594529, 37.77094996070759 ] ] ] } },
{ "type": "Feature", "properties": { "fid": 13 }, "geometry": { "type": "MultiLineString", "coordinates": [ [ [ -122.443960753940999, 37.746765215998309 ], [ -122.444094980931808, 37.746721674984492 ], [ -122.444603143760972, 37.746682786521681 ], [ -122.4447829179053, 37.746770517395952 ], [ -122.444847226893771, 37.746945371905881 ] ] ] } },
{ "type": "Feature", "properties": { "fid": 14 }, "geometry": { "type": "MultiLineString", "coordinates": [ [ [ -122.443553414928815, 37.749443204901233 ], [ -122.443704170752895, 37.749176761035329 ], [ -122.443810247703937, 37.749040348345645 ], [ -122.444092636529049, 37.748685288766993 ], [ -122.444266952141732, 37.748380230796926 ], [ -122.444221343473714, 37.748030582842432 ], [ -122.444158346700505, 37.747790520672702 ], [ -122.444172454919467, 37.747555614844643 ], [ -122.444292423495355, 37.747308530732816 ], [ -122.444425610956472, 37.747174320583504 ], [ -122.444620141797998, 37.747080781527579 ], [ -122.44474049221941, 37.747045065216106 ], [ -122.444847226893771, 37.746945371905881 ] ] ] } },
{ "type": "Feature", "properties": { "fid": 15 }, "geometry": { "type": "MultiLineString", "coordinates": [ [ [ -122.444847226893771, 37.746945371905881 ], [ -122.445030416374308, 37.746902919716462 ], [ -122.446178295777244, 37.746746611611123 ], [ -122.446919266615339, 37.746600953250983 ], [ -122.447621387028136, 37.746418008649584 ], [ -122.447786106720798, 37.746438158337568 ] ] ] } },
{ "type": "Feature", "properties": { "fid": 16 }, "geometry": { "type": "MultiLineString", "coordinates": [ [ [ -122.444847226893771, 37.746945371905881 ], [ -122.445049936372968, 37.747014592074358 ], [ -122.446186007392171, 37.746842570371982 ], [ -122.446648369651413, 37.746760185553981 ] ] ] } },
{ "type": "Feature", "properties": { "fid": 17 }, "geometry": { "type": "MultiLineString", "coordinates": [ [ [ -122.446648369651413, 37.746760185553981 ], [ -122.446841299360102, 37.746722290248449 ], [ -122.447659039147965, 37.746536679101588 ], [ -122.447786106720798, 37.746438158337568 ] ] ] } },
{ "type": "Feature", "properties": { "fid": 18 }, "geometry": { "type": "MultiLineString", "coordinates": [ [ [ -122.447786106720798, 37.746438158337568 ], [ -122.447865628288341, 37.746346740971489 ], [ -122.448863524803301, 37.746106609235973 ], [ -122.449697918245761, 37.745950734510096 ], [ -122.450483239033872, 37.745819344950412 ], [ -122.45073672983834, 37.745754636791951 ], [ -122.450852985235613, 37.745825830641266 ] ] ] } },
{ "type": "Feature", "properties": { "fid": 19 }, "geometry": { "type": "MultiLineString", "coordinates": [ [ [ -122.447786106720798, 37.746438158337568 ], [ -122.447915522654199, 37.746480094559388 ], [ -122.448893336864828, 37.746232401616766 ], [ -122.449720554356617, 37.746055599062629 ], [ -122.450523198743568, 37.745952862858879 ], [ -122.450704846700347, 37.745928808711994 ], [ -122.450852985235613, 37.745825830641266 ] ] ] } },
{ "type": "Feature", "properties": { "fid": 20 }, "geometry": { "type": "MultiLineString", "coordinates": [ [ [ -122.442519009917376, 37.748183215001227 ], [ -122.442584208402721, 37.748079343695437 ], [ -122.443161822693895, 37.747504351508525 ] ] ] } },
{ "type": "Feature", "properties": { "fid": 21 }, "geometry": { "type": "MultiLineString", "coordinates": [ [ [ -122.443161822693895, 37.747504351508525 ], [ -122.443960753940999, 37.746765215998309 ] ] ] } },
{ "type": "Feature", "properties": { "fid": 22 }, "geometry": { "type": "MultiLineString", "coordinates": [ [ [ -122.443616300063695, 37.749776947102291 ], [ -122.443553414928815, 37.749443204901254 ] ] ] } },
{ "type": "Feature", "properties": { "fid": 23 }, "geometry": { "type": "MultiLineString", "coordinates": [ [ [ -122.458728518919628, 37.746755428768623 ], [ -122.458656550074807, 37.746823094293092 ], [ -122.458471811865024, 37.746871010824876 ], [ -122.457912318343546, 37.746860828971528 ], [ -122.457247911869402, 37.746753751113779 ], [ -122.457166741784974, 37.746698019917936 ] ] ] } },
{ "type": "Feature", "properties": { "fid": 24 }, "geometry": { "type": "MultiLineString", "coordinates": [ [ [ -122.458728518919628, 37.746755428768623 ], [ -122.458610346859473, 37.746751805337993 ], [ -122.458499845053993, 37.746781513356048 ], [ -122.457949640794894, 37.746779213565375 ], [ -122.457255100751112, 37.746672060548939 ], [ -122.457166741784974, 37.746698019917936 ] ] ] } },
{ "type": "Feature", "properties": { "fid": 25 }, "geometry": { "type": "MultiLineString", "coordinates": [ [ [ -122.457166741784974, 37.746698019917936 ], [ -122.457078853545696, 37.746725177246404 ], [ -122.456673688995281, 37.746660095570796 ], [ -122.456376648346492, 37.746590208281923 ], [ -122.456314709355468, 37.746530445071734 ] ] ] } },
{ "type": "Feature", "properties": { "fid": 26 }, "geometry": { "type": "MultiLineString", "coordinates": [ [ [ -122.457166741784974, 37.746698019917936 ], [ -122.457105264998873, 37.746645275418729 ], [ -122.456709033385522, 37.746581628969665 ], [ -122.456400187475452, 37.746508221099404 ], [ -122.456314709355468, 37.746530445071734 ] ] ] } },
{ "type": "Feature", "properties": { "fid": 27 }, "geometry": { "type": "MultiLineString", "coordinates": [ [ [ -122.456314709355468, 37.746530445071734 ], [ -122.456224340316794, 37.74655839096706 ], [ -122.45553385208737, 37.746393527924774 ], [ -122.455466733815214, 37.746327979625264 ] ] ] } },
{ "type": "Feature", "properties": { "fid": 28 }, "geometry": { "type": "MultiLineString", "coordinates": [ [ [ -122.456314709355468, 37.746530445071734 ], [ -122.456259940657404, 37.746475145545688 ], [ -122.455567337888894, 37.746309777976265 ], [ -122.455466733815214, 37.746327979625264 ] ] ] } },
{ "type": "Feature", "properties": { "fid": 29 }, "geometry": { "type": "MultiLineString", "coordinates": [ [ [ -122.455466733815214, 37.746327979625264 ], [ -122.455374838972588, 37.746348407803701 ], [ -122.454814904559484, 37.746216804183639 ], [ -122.454721963165696, 37.746178254774662 ], [ -122.454664098486134, 37.746106167324655 ] ] ] } },
{ "type": "Feature", "properties": { "fid": 30 }, "geometry": { "type": "MultiLineString", "coordinates": [ [ [ -122.455466733815214, 37.746327979625264 ], [ -122.455413188828459, 37.746263602058939 ], [ -122.454850640057941, 37.746129281534849 ], [ -122.454769057711488, 37.746099414521524 ], [ -122.454664098486134, 37.746106167324655 ] ] ] } },
{ "type": "Feature", "properties": { "fid": 31 }, "geometry": { "type": "MultiLineString", "coordinates": [ [ [ -122.454664098486134, 37.746106167324655 ], [ -122.454584606031872, 37.746107031668238 ], [ -122.454274934811039, 37.74590814488522 ], [ -122.453959375248687, 37.745765076119213 ], [ -122.453916431291034, 37.745699920991818 ] ] ] } },
{ "type": "Feature", "properties": { "fid": 32 }, "geometry": { "type": "MultiLineString", "coordinates": [ [ [ -122.454664098486134, 37.746106167324655 ], [ -122.454638659674956, 37.746037704766444 ], [ -122.454331961319156, 37.74584072719108 ], [ -122.454006577707105, 37.745693771361061 ], [ -122.453916431291034, 37.745699920991818 ] ] ] } },
{ "type": "Feature", "properties": { "fid": 33 }, "geometry": { "type": "MultiLineString", "coordinates": [ [ [ -122.453916431291034, 37.745699920991818 ], [ -122.453829178679271, 37.745724013801357 ], [ -122.453645158385058, 37.745695558772461 ], [ -122.453376025083202, 37.745687792570038 ], [ -122.452227547780055, 37.745692008818935 ], [ -122.45181606626069, 37.745671215091676 ], [ -122.451691490295332, 37.74560643343915 ], [ -122.451623988177346, 37.74553423650049 ] ] ] } },
{ "type": "Feature", "properties": { "fid": 34 }, "geometry": { "type": "MultiLineString", "coordinates": [ [ [ -122.453916431291034, 37.745699920991818 ], [ -122.453849841672422, 37.745649779450822 ], [ -122.453640767565986, 37.745616880402224 ], [ -122.453371633415088, 37.745609114208477 ], [ -122.452223157303976, 37.745613329513695 ], [ -122.451926633335219, 37.745569304051998 ], [ -122.451747924049883, 37.745525228137446 ], [ -122.451623988177346, 37.74553423650049 ] ] ] } },
{ "type": "Feature", "properties": { "fid": 35 }, "geometry": { "type": "MultiLineString", "coordinates": [ [ [ -122.450852985235613, 37.745825830641266 ], [ -122.45096953878965, 37.745869858229199 ], [ -122.45157000333856, 37.745654455009152 ], [ -122.451623988177346, 37.74553423650049 ] ] ] } },
{ "type": "Feature", "properties": { "fid": 36 }, "geometry": { "type": "MultiLineString", "coordinates": [ [ [ -122.450852985235613, 37.745825830641266 ], [ -122.450883189396052, 37.7457152014223 ], [ -122.451468230999652, 37.745523944695115 ], [ -122.451623988177346, 37.74553423650049 ] ] ] } },
{ "type": "Feature", "properties": { "fid": 37 }, "geometry": { "type": "MultiLineString", "coordinates": [ [ [ -122.459174376773021, 37.747286318628703 ], [ -122.459029564642336, 37.747259229790934 ], [ -122.458691263808106, 37.746858509703024 ], [ -122.458728518919628, 37.746755428768623 ] ] ] } },
{ "type": "Feature", "properties": { "fid": 38 }, "geometry": { "type": "MultiLineString", "coordinates": [ [ [ -122.459174376773021, 37.747286318628703 ], [ -122.45917084334819, 37.747178873303781 ], [ -122.458846687673812, 37.746791730720147 ], [ -122.458728518919628, 37.746755428768623 ] ] ] } },
{ "type": "Feature", "properties": { "fid": 39 }, "geometry": { "type": "MultiLineString", "coordinates": [ [ [ -122.499196336899786, 37.734311615207375 ], [ -122.499385455180402, 37.73431055638676 ], [ -122.500161804041127, 37.734742687224006 ], [ -122.500595285388542, 37.734941575293547 ], [ -122.50098882488777, 37.735082546944092 ], [ -122.501097484305731, 37.735206480335286 ] ] ] } },
{ "type": "Feature", "properties": { "fid": 40 }, "geometry": { "type": "MultiLineString", "coordinates": [ [ [ -122.499196336899786, 37.734311615207375 ], [ -122.499238723293729, 37.734453670359812 ], [ -122.500062558365414, 37.734904899046903 ] ] ] } },
{ "type": "Feature", "properties": { "fid": 41 }, "geometry": { "type": "MultiLineString", "coordinates": [ [ [ -122.500062558365414, 37.734904899046903 ], [ -122.50049339211543, 37.73510502297956 ], [ -122.500901877451739, 37.735252772632897 ], [ -122.501097484305731, 37.735206480335286 ] ] ] } },
{ "type": "Feature", "properties": { "fid": 42 }, "geometry": { "type": "MultiLineString", "coordinates": [ [ [ -122.501097484305731, 37.735206480335286 ], [ -122.501251122678411, 37.73517418485315 ], [ -122.501548267912042, 37.735244136678638 ], [ -122.502017218896711, 37.735334606202457 ], [ -122.502529177421678, 37.735377467607947 ], [ -122.503007662909923, 37.735383396153559 ], [ -122.503104760152056, 37.735466490843265 ] ] ] } },
{ "type": "Feature", "properties": { "fid": 43 }, "geometry": { "type": "MultiLineString", "coordinates": [ [ [ -122.501097484305731, 37.735206480335286 ], [ -122.501178868581945, 37.735341817051555 ], [ -122.5015948226619, 37.735437875743827 ], [ -122.502031178668148, 37.735514908113437 ] ] ] } },
{ "type": "Feature", "properties": { "fid": 44 }, "geometry": { "type": "MultiLineString", "coordinates": [ [ [ -122.502031178668148, 37.735514908113437 ], [ -122.502557648609411, 37.735557450735079 ], [ -122.502994563902519, 37.735554711197167 ], [ -122.503104760152056, 37.735466490843265 ] ] ] } },
{ "type": "Feature", "properties": { "fid": 45 }, "geometry": { "type": "MultiLineString", "coordinates": [ [ [ -122.503104760152056, 37.735466490843265 ], [ -122.503202509295122, 37.735382427638612 ], [ -122.505127432596055, 37.735375465011856 ], [ -122.505257352907748, 37.735475286965723 ] ] ] } },
{ "type": "Feature", "properties": { "fid": 46 }, "geometry": { "type": "MultiLineString", "coordinates": [ [ [ -122.503104760152056, 37.735466490843265 ], [ -122.503218861799553, 37.735550897848078 ], [ -122.504185331688817, 37.735557881380686 ] ] ] } },
{ "type": "Feature", "properties": { "fid": 47 }, "geometry": { "type": "MultiLineString", "coordinates": [ [ [ -122.504185331688817, 37.735557881380686 ], [ -122.50515321149534, 37.73556486814325 ], [ -122.505257352907748, 37.735475286965723 ] ] ] } },
{ "type": "Feature", "properties": { "fid": 48 }, "geometry": { "type": "MultiLineString", "coordinates": [ [ [ -122.505257352907748, 37.735475286965723 ], [ -122.505368829307031, 37.735383344867181 ], [ -122.50651632372859, 37.735383531087486 ], [ -122.506717429695129, 37.735469756982802 ] ] ] } },
{ "type": "Feature", "properties": { "fid": 49 }, "geometry": { "type": "MultiLineString", "coordinates": [ [ [ -122.505257352907748, 37.735475286965723 ], [ -122.505376116373313, 37.735569693860384 ], [ -122.5061351264047, 37.735571116808352 ] ] ] } },
{ "type": "Feature", "properties": { "fid": 50 }, "geometry": { "type": "MultiLineString", "coordinates": [ [ [ -122.5061351264047, 37.735571116808352 ], [ -122.506521404840157, 37.735571711096284 ], [ -122.506717429695129, 37.735469756982802 ] ] ] } },
{ "type": "Feature", "properties": { "fid": 51 }, "geometry": { "type": "MultiLineString", "coordinates": [ [ [ -122.509432940701515, 37.779851069105035 ], [ -122.510468098460606, 37.779793270602347 ], [ -122.510635466549331, 37.779765402497915 ], [ -122.510801098316975, 37.779721931847448 ], [ -122.510931058230312, 37.779670731209677 ], [ -122.511359655922632, 37.779443511961816 ], [ -122.511424140681726, 37.779409662676642 ] ] ] } },
{ "type": "Feature", "properties": { "fid": 52 }, "geometry": { "type": "MultiLineString", "coordinates": [ [ [ -122.511424140681726, 37.779409662676642 ], [ -122.511694998387128, 37.779264782732888 ], [ -122.511846540919024, 37.779186115326816 ], [ -122.5120754273497, 37.779101958579957 ], [ -122.512286920628611, 37.779054575769791 ], [ -122.512508338419551, 37.779034120602155 ], [ -122.512660683805109, 37.779033604377837 ], [ -122.512851439933826, 37.77904493858837 ], [ -122.513020683312874, 37.77903787971001 ], [ -122.513181794814429, 37.779021579393628 ], [ -122.513360325463807, 37.778969546585024 ], [ -122.513491255389866, 37.778905820051818 ], [ -122.513568020113397, 37.77883051207484 ], [ -122.51359920237887, 37.778769530891786 ], [ -122.513616720031379, 37.778688981144917 ], [ -122.513612033077351, 37.778612979776987 ], [ -122.513579901815433, 37.778493673240988 ], [ -122.513349773567199, 37.778047366980061 ], [ -122.513283045044105, 37.777959918697839 ], [ -122.513207578937127, 37.777889295159142 ], [ -122.513109626224136, 37.777812801889766 ], [ -122.513013409215858, 37.777751911739557 ], [ -122.512912717711274, 37.777671295960985 ], [ -122.512796682164421, 37.777557591850147 ], [ -122.512659515072073, 37.777391094416664 ], [ -122.512528108007245, 37.777243258620651 ], [ -122.512426824975009, 37.7771407669293 ], [ -122.512287019666942, 37.777022256251655 ], [ -122.512131573892148, 37.776908181486725 ], [ -122.511938326743717, 37.776756189597251 ] ] ] } },
{ "type": "Feature", "properties": { "fid": 57 }, "geometry": { "type": "MultiLineString", "coordinates": [ [ [ -122.465312620426729, 37.726405274753823 ], [ -122.465379588424966, 37.726479946809825 ], [ -122.465644248346649, 37.726581413557199 ], [ -122.465992383113374, 37.726784933950853 ], [ -122.466073200414499, 37.726785002871992 ] ] ] } },
{ "type": "Feature", "properties": { "fid": 58 }, "geometry": { "type": "MultiLineString", "coordinates": [ [ [ -122.466073200414499, 37.726785002871992 ], [ -122.466153861890433, 37.726791491124594 ], [ -122.466288570320728, 37.726889434818972 ] ] ] } },
{ "type": "Feature", "properties": { "fid": 59 }, "geometry": { "type": "MultiLineString", "coordinates": [ [ [ -122.466288570320728, 37.726889434818972 ], [ -122.466653620857613, 37.727161743349242 ], [ -122.466681387337431, 37.727237764853683 ] ] ] } },
{ "type": "Feature", "properties": { "fid": 60 }, "geometry": { "type": "MultiLineString", "coordinates": [ [ [ -122.466073200414499, 37.726785002871992 ], [ -122.466101291718658, 37.726843263873235 ], [ -122.466591688511073, 37.727217244194399 ], [ -122.466681387337431, 37.727237764853683 ] ] ] } },
{ "type": "Feature", "properties": { "fid": 61 }, "geometry": { "type": "MultiLineString", "coordinates": [ [ [ -122.466681387337431, 37.727237764853683 ], [ -122.466786022120758, 37.727259193278165 ], [ -122.467321425652827, 37.72769975136103 ], [ -122.467330680514777, 37.727772037109908 ] ] ] } },
{ "type": "Feature", "properties": { "fid": 62 }, "geometry": { "type": "MultiLineString", "coordinates": [ [ [ -122.466681387337431, 37.727237764853683 ], [ -122.466704237134763, 37.727317209305802 ], [ -122.467230130190941, 37.727749941631302 ], [ -122.467330680514777, 37.727772037109908 ] ] ] } },
{ "type": "Feature", "properties": { "fid": 63 }, "geometry": { "type": "MultiLineString", "coordinates": [ [ [ -122.467330680514777, 37.727772037109908 ], [ -122.467413073471278, 37.727805567777018 ], [ -122.467579529139755, 37.728005852128859 ], [ -122.467747503735367, 37.728262099153781 ], [ -122.467739343716232, 37.728329065564054 ] ] ] } },
{ "type": "Feature", "properties": { "fid": 64 }, "geometry": { "type": "MultiLineString", "coordinates": [ [ [ -122.467330680514777, 37.727772037109908 ], [ -122.467347218037077, 37.72784583247519 ], [ -122.467503440706935, 37.728033803921015 ], [ -122.46767141394534, 37.728290050171324 ], [ -122.467739343716232, 37.728329065564054 ] ] ] } },
{ "type": "Feature", "properties": { "fid": 65 }, "geometry": { "type": "MultiLineString", "coordinates": [ [ [ -122.467739343716232, 37.728329065564054 ], [ -122.467822601712811, 37.728390564826647 ], [ -122.468085857446852, 37.728902624921304 ], [ -122.468077262813679, 37.728974766288594 ] ] ] } },
{ "type": "Feature", "properties": { "fid": 66 }, "geometry": { "type": "MultiLineString", "coordinates": [ [ [ -122.467739343716232, 37.728329065564054 ], [ -122.467737065614401, 37.728424391098038 ], [ -122.468012167091189, 37.728930536063501 ], [ -122.468077262813679, 37.728974766288594 ] ] ] } },
{ "type": "Feature", "properties": { "fid": 67 }, "geometry": { "type": "MultiLineString", "coordinates": [ [ [ -122.462212504771216, 37.725265706677753 ], [ -122.46231044474257, 37.725265016196232 ], [ -122.462766891039323, 37.725429060216349 ], [ -122.462815476274045, 37.725482411255399 ] ] ] } },
{ "type": "Feature", "properties": { "fid": 68 }, "geometry": { "type": "MultiLineString", "coordinates": [ [ [ -122.462212504771216, 37.725265706677753 ], [ -122.462279856462587, 37.72532825336058 ], [ -122.462729772482703, 37.725489950441045 ], [ -122.462815476274045, 37.725482411255399 ] ] ] } },
{ "type": "Feature", "properties": { "fid": 69 }, "geometry": { "type": "MultiLineString", "coordinates": [ [ [ -122.462815476274045, 37.725482411255399 ], [ -122.462912986225561, 37.725480636048552 ], [ -122.463238069269394, 37.725589319648151 ] ] ] } },
{ "type": "Feature", "properties": { "fid": 70 }, "geometry": { "type": "MultiLineString", "coordinates": [ [ [ -122.463238069269394, 37.725589319648151 ], [ -122.463788490577841, 37.725805463906617 ], [ -122.463843894467232, 37.725862490557482 ] ] ] } },
{ "type": "Feature", "properties": { "fid": 71 }, "geometry": { "type": "MultiLineString", "coordinates": [ [ [ -122.462815476274045, 37.725482411255399 ], [ -122.46287046390934, 37.725547644708755 ], [ -122.463746637153406, 37.72587277266495 ], [ -122.463843894467232, 37.725862490557482 ] ] ] } },
{ "type": "Feature", "properties": { "fid": 72 }, "geometry": { "type": "MultiLineString", "coordinates": [ [ [ -122.463843894467232, 37.725862490557482 ], [ -122.463939447105219, 37.725848758025528 ], [ -122.464174797495261, 37.725935735418354 ], [ -122.464220184852834, 37.726001555511488 ] ] ] } },
{ "type": "Feature", "properties": { "fid": 73 }, "geometry": { "type": "MultiLineString", "coordinates": [ [ [ -122.463843894467232, 37.725862490557482 ], [ -122.463883929674736, 37.725936267766308 ], [ -122.464120487095073, 37.72602528897341 ], [ -122.464220184852834, 37.726001555511488 ] ] ] } },
{ "type": "Feature", "properties": { "fid": 74 }, "geometry": { "type": "MultiLineString", "coordinates": [ [ [ -122.464220184852834, 37.726001555511488 ], [ -122.464315738056243, 37.725986680803892 ], [ -122.464536073657356, 37.726067318023027 ], [ -122.464572579934611, 37.726131787333955 ] ] ] } },
{ "type": "Feature", "properties": { "fid": 75 }, "geometry": { "type": "MultiLineString", "coordinates": [ [ [ -122.464220184852834, 37.726001555511488 ], [ -122.46425853235759, 37.726068815077568 ], [ -122.464493242148237, 37.726155469073611 ], [ -122.464572579934611, 37.726131787333955 ] ] ] } },
{ "type": "Feature", "properties": { "fid": 76 }, "geometry": { "type": "MultiLineString", "coordinates": [ [ [ -122.464572579934611, 37.726131787333955 ], [ -122.464654244460476, 37.726126376203595 ], [ -122.465258953736409, 37.726353285628932 ], [ -122.465312620426729, 37.726405274753823 ] ] ] } },
{ "type": "Feature", "properties": { "fid": 77 }, "geometry": { "type": "MultiLineString", "coordinates": [ [ [ -122.464572579934611, 37.726131787333955 ], [ -122.464611600433486, 37.726197792765774 ], [ -122.46520937009565, 37.726411725052849 ], [ -122.465312620426729, 37.726405274753823 ] ] ] } },
{ "type": "Feature", "properties": { "fid": 78 }, "geometry": { "type": "MultiLineString", "coordinates": [ [ [ -122.465312620426729, 37.726405274753823 ], [ -122.465412193373439, 37.726413286532136 ], [ -122.465699371490729, 37.726531351314449 ], [ -122.466044768521897, 37.726720813823363 ], [ -122.466073200414499, 37.726785002871992 ] ] ] } },
{ "type": "Feature", "properties": { "fid": 79 }, "geometry": { "type": "MultiLineString", "coordinates": [ [ [ -122.452331562128052, 37.723080242360403 ], [ -122.452381836377967, 37.723062440761886 ], [ -122.453060972467824, 37.723205856211827 ], [ -122.453107198970017, 37.723244035641983 ] ] ] } },
{ "type": "Feature", "properties": { "fid": 80 }, "geometry": { "type": "MultiLineString", "coordinates": [ [ [ -122.452331562128052, 37.723080242360403 ], [ -122.452372925504847, 37.72311739505453 ], [ -122.453041522062506, 37.723258584416108 ], [ -122.453107198970017, 37.723244035641983 ] ] ] } },
{ "type": "Feature", "properties": { "fid": 81 }, "geometry": { "type": "MultiLineString", "coordinates": [ [ [ -122.40206163555311, 37.74939667835941 ], [ -122.402215286763038, 37.749358244183064 ], [ -122.402746245995715, 37.749375019168752 ], [ -122.40286631044745, 37.749478458148332 ] ] ] } },
{ "type": "Feature", "properties": { "fid": 82 }, "geometry": { "type": "MultiLineString", "coordinates": [ [ [ -122.40206163555311, 37.74939667835941 ], [ -122.402190280052423, 37.749426762782086 ], [ -122.402724248113216, 37.749505299344776 ], [ -122.40286631044745, 37.749478458148332 ] ] ] } },
{ "type": "Feature", "properties": { "fid": 83 }, "geometry": { "type": "MultiLineString", "coordinates": [ [ [ -122.405626952974288, 37.748971046400335 ], [ -122.405652440002996, 37.748966255232425 ], [ -122.40624132112724, 37.748868867573343 ], [ -122.406385114511878, 37.748833102666119 ] ] ] } },
{ "type": "Feature", "properties": { "fid": 84 }, "geometry": { "type": "MultiLineString", "coordinates": [ [ [ -122.406385114511878, 37.748833102666119 ], [ -122.406463897436993, 37.748813507275599 ], [ -122.406681389969847, 37.748742584546896 ], [ -122.406757778276457, 37.748766478168491 ] ] ] } },
{ "type": "Feature", "properties": { "fid": 85 }, "geometry": { "type": "MultiLineString", "coordinates": [ [ [ -122.405152675253518, 37.749140153742999 ], [ -122.40520450684717, 37.74913231512221 ], [ -122.405501023562934, 37.749080799957333 ], [ -122.405682128608831, 37.749044252355638 ], [ -122.406311868416267, 37.748938886618376 ], [ -122.406455408911754, 37.748897552581134 ], [ -122.406728180815222, 37.748819004256369 ], [ -122.406757778276457, 37.748766478168491 ] ] ] } },
{ "type": "Feature", "properties": { "fid": 86 }, "geometry": { "type": "MultiLineString", "coordinates": [ [ [ -122.38758527147165, 37.750263376883069 ], [ -122.388507730644719, 37.750205974091827 ] ] ] } },
{ "type": "Feature", "properties": { "fid": 87 }, "geometry": { "type": "MultiLineString", "coordinates": [ [ [ -122.388507730644719, 37.750205974091827 ], [ -122.389478019211126, 37.750145107071923 ] ] ] } },
{ "type": "Feature", "properties": { "fid": 88 }, "geometry": { "type": "MultiLineString", "coordinates": [ [ [ -122.389478019211126, 37.750145107071923 ], [ -122.390433038821399, 37.750118340149264 ] ] ] } },
{ "type": "Feature", "properties": { "fid": 89 }, "geometry": { "type": "MultiLineString", "coordinates": [ [ [ -122.390433038821399, 37.750118340149264 ], [ -122.39141836905668, 37.750140605308125 ] ] ] } },
{ "type": "Feature", "properties": { "fid": 90 }, "geometry": { "type": "MultiLineString", "coordinates": [ [ [ -122.39141836905668, 37.750140605308125 ], [ -122.391929935080952, 37.750086859702968 ], [ -122.392381993913617, 37.750021505402003 ] ] ] } },
{ "type": "Feature", "properties": { "fid": 91 }, "geometry": { "type": "MultiLineString", "coordinates": [ [ [ -122.392381993913617, 37.750021505402003 ], [ -122.393340266988531, 37.749915158251909 ] ] ] } },
{ "type": "Feature", "properties": { "fid": 92 }, "geometry": { "type": "MultiLineString", "coordinates": [ [ [ -122.393340266988531, 37.749915158251909 ], [ -122.395307862519985, 37.7498037849344 ] ] ] } },
{ "type": "Feature", "properties": { "fid": 93 }, "geometry": { "type": "MultiLineString", "coordinates": [ [ [ -122.395307862519985, 37.7498037849344 ], [ -122.396273545292431, 37.749745599864347 ] ] ] } },
{ "type": "Feature", "properties": { "fid": 94 }, "geometry": { "type": "MultiLineString", "coordinates": [ [ [ -122.396273545292431, 37.749745599864347 ], [ -122.397285416856334, 37.749684621981409 ] ] ] } },
{ "type": "Feature", "properties": { "fid": 95 }, "geometry": { "type": "MultiLineString", "coordinates": [ [ [ -122.397285416856334, 37.749684621981409 ], [ -122.40206163555311, 37.74939667835941 ] ] ] } },
{ "type": "Feature", "properties": { "fid": 96 }, "geometry": { "type": "MultiLineString", "coordinates": [ [ [ -122.391781010370607, 37.764141401841968 ], [ -122.392485618778949, 37.764097996830394 ] ] ] } },
{ "type": "Feature", "properties": { "fid": 97 }, "geometry": { "type": "MultiLineString", "coordinates": [ [ [ -122.392485618778949, 37.764097996830394 ], [ -122.393173808501601, 37.764055598413648 ] ] ] } },
{ "type": "Feature", "properties": { "fid": 98 }, "geometry": { "type": "MultiLineString", "coordinates": [ [ [ -122.393173808501601, 37.764055598413648 ], [ -122.393729796814242, 37.764021341959328 ] ] ] } },
{ "type": "Feature", "properties": { "fid": 99 }, "geometry": { "type": "MultiLineString", "coordinates": [ [ [ -122.404496978094102, 37.76466431621342 ], [ -122.405463421224837, 37.764605966508292 ] ] ] } },
{ "type": "Feature", "properties": { "fid": 107 }, "geometry": { "type": "MultiLineString", "coordinates": [ [ [ -122.403877701782989, 37.770062865397989 ], [ -122.404083398246797, 37.769969443088456 ], [ -122.404391382385413, 37.769749518990075 ] ] ] } },
{ "type": "Feature", "properties": { "fid": 108 }, "geometry": { "type": "MultiLineString", "coordinates": [ [ [ -122.403406519053135, 37.769807099072302 ], [ -122.404010427720792, 37.769771792982738 ] ] ] } },
{ "type": "Feature", "properties": { "fid": 109 }, "geometry": { "type": "MultiLineString", "coordinates": [ [ [ -122.404010427720792, 37.769771792982738 ], [ -122.404391382385413, 37.769749518990075 ] ] ] } },
{ "type": "Feature", "properties": { "fid": 110 }, "geometry": { "type": "MultiLineString", "coordinates": [ [ [ -122.404391382385413, 37.769749518990075 ], [ -122.404990207009106, 37.769714504491482 ] ] ] } },
{ "type": "Feature", "properties": { "fid": 111 }, "geometry": { "type": "MultiLineString", "coordinates": [ [ [ -122.404990207009106, 37.769714504491482 ], [ -122.405939205186073, 37.769659009589546 ] ] ] } },
{ "type": "Feature", "properties": { "fid": 112 }, "geometry": { "type": "MultiLineString", "coordinates": [ [ [ -122.405939205186073, 37.769659009589546 ], [ -122.406213364586634, 37.769462544523705 ] ] ] } },
{ "type": "Feature", "properties": { "fid": 113 }, "geometry": { "type": "MultiLineString", "coordinates": [ [ [ -122.406213364586634, 37.769462544523705 ], [ -122.406397751627537, 37.769370985743514 ], [ -122.406724694490819, 37.769306935750919 ], [ -122.406882400878871, 37.769298556494377 ] ] ] } },
{ "type": "Feature", "properties": { "fid": 114 }, "geometry": { "type": "MultiLineString", "coordinates": [ [ [ -122.406882400878871, 37.769298556494377 ], [ -122.408007204685688, 37.769244009247956 ] ] ] } },
{ "type": "Feature", "properties": { "fid": 115 }, "geometry": { "type": "MultiLineString", "coordinates": [ [ [ -122.408007204685688, 37.769244009247956 ], [ -122.408452179929625, 37.769163144941025 ], [ -122.409247184730248, 37.769106967493101 ], [ -122.409566796773149, 37.769127213612713 ], [ -122.410782548415014, 37.769314499413149 ], [ -122.410931089139297, 37.769411190146144 ] ] ] } },
{ "type": "Feature", "properties": { "fid": 116 }, "geometry": { "type": "MultiLineString", "coordinates": [ [ [ -122.408007204685688, 37.769244009247956 ], [ -122.408551358813753, 37.769252187988116 ], [ -122.409257954417086, 37.769220622072744 ], [ -122.409540431704301, 37.769235055783597 ], [ -122.41075618502137, 37.769422340951436 ], [ -122.410931089139297, 37.769411190146144 ] ] ] } },
{ "type": "Feature", "properties": { "fid": 117 }, "geometry": { "type": "MultiLineString", "coordinates": [ [ [ -122.403877701782989, 37.770062865397989 ], [ -122.403615112982621, 37.76989318886779 ], [ -122.403406519053135, 37.769807099072302 ] ] ] } },
{ "type": "Feature", "properties": { "fid": 118 }, "geometry": { "type": "MultiLineString", "coordinates": [ [ [ -122.400073002466513, 37.723446780481652 ], [ -122.400784748776914, 37.723616207841943 ] ] ] } },
{ "type": "Feature", "properties": { "fid": 119 }, "geometry": { "type": "MultiLineString", "coordinates": [ [ [ -122.400784748776914, 37.723616207841943 ], [ -122.40206096812382, 37.723919993721175 ] ] ] } },
{ "type": "Feature", "properties": { "fid": 120 }, "geometry": { "type": "MultiLineString", "coordinates": [ [ [ -122.457889059141237, 37.709673981274655 ], [ -122.457670306719095, 37.709539891642265 ], [ -122.457517922749105, 37.7094361896118 ] ] ] } },
{ "type": "Feature", "properties": { "fid": 122 }, "geometry": { "type": "MultiLineString", "coordinates": [ [ [ -122.421976766789157, 37.743979453081558 ], [ -122.422669446403333, 37.743942240156272 ] ] ] } },
{ "type": "Feature", "properties": { "fid": 123 }, "geometry": { "type": "MultiLineString", "coordinates": [ [ [ -122.472322355945508, 37.721623767423949 ], [ -122.472634535403046, 37.721568857719475 ] ] ] } },
{ "type": "Feature", "properties": { "fid": 124 }, "geometry": { "type": "MultiLineString", "coordinates": [ [ [ -122.472634535403046, 37.721568857719475 ], [ -122.472726509305915, 37.721510193560569 ], [ -122.473562833228712, 37.721342823471829 ], [ -122.473668488185993, 37.72136662679727 ] ] ] } },
{ "type": "Feature", "properties": { "fid": 125 }, "geometry": { "type": "MultiLineString", "coordinates": [ [ [ -122.472634535403046, 37.721568857719475 ], [ -122.472757621895994, 37.721590085322447 ], [ -122.47357354726671, 37.72143268919671 ], [ -122.473668488185993, 37.72136662679727 ] ] ] } },
{ "type": "Feature", "properties": { "fid": 126 }, "geometry": { "type": "MultiLineString", "coordinates": [ [ [ -122.473668488185993, 37.72136662679727 ], [ -122.473742768853882, 37.721308623267511 ], [ -122.474437422709741, 37.721173348710707 ], [ -122.474547328555857, 37.721196921381889 ] ] ] } },
{ "type": "Feature", "properties": { "fid": 127 }, "geometry": { "type": "MultiLineString", "coordinates": [ [ [ -122.473668488185993, 37.72136662679727 ], [ -122.473748620539709, 37.721401020010596 ], [ -122.474439887845975, 37.721266147371765 ], [ -122.474547328555857, 37.721196921381889 ] ] ] } },
{ "type": "Feature", "properties": { "fid": 128 }, "geometry": { "type": "MultiLineString", "coordinates": [ [ [ -122.474547328555857, 37.721196921381889 ], [ -122.474621457496369, 37.721135459077075 ], [ -122.474989353792381, 37.721049165311634 ], [ -122.475221953613897, 37.721057295052269 ] ] ] } },
{ "type": "Feature", "properties": { "fid": 129 }, "geometry": { "type": "MultiLineString", "coordinates": [ [ [ -122.474547328555857, 37.721196921381889 ], [ -122.474628192313915, 37.721235988171912 ], [ -122.475013024847826, 37.721146058743571 ], [ -122.475221953613897, 37.721057295052269 ] ] ] } },
{ "type": "Feature", "properties": { "fid": 130 }, "geometry": { "type": "MultiLineString", "coordinates": [ [ [ -122.475221953613897, 37.721057295052269 ], [ -122.475400748074676, 37.720886590277814 ] ] ] } },
{ "type": "Feature", "properties": { "fid": 131 }, "geometry": { "type": "MultiLineString", "coordinates": [ [ [ -122.475221953613897, 37.721057295052269 ], [ -122.475447444437606, 37.720951966089167 ] ] ] } },
{ "type": "Feature", "properties": { "fid": 132 }, "geometry": { "type": "MultiLineString", "coordinates": [ [ [ -122.471760272680399, 37.72167120293809 ], [ -122.471983400106467, 37.721660602336549 ] ] ] } },
{ "type": "Feature", "properties": { "fid": 133 }, "geometry": { "type": "MultiLineString", "coordinates": [ [ [ -122.471983400106467, 37.721660602336549 ], [ -122.472322355945508, 37.721623767423949 ] ] ] } },
{ "type": "Feature", "properties": { "fid": 134 }, "geometry": { "type": "MultiLineString", "coordinates": [ [ [ -122.396109387140811, 37.786012603448562 ], [ -122.395544554391634, 37.786458621212354 ] ] ] } },
{ "type": "Feature", "properties": { "fid": 135 }, "geometry": { "type": "MultiLineString", "coordinates": [ [ [ -122.387926352236448, 37.742703152777196 ], [ -122.388455029945447, 37.742980616379199 ] ] ] } },
{ "type": "Feature", "properties": { "fid": 136 }, "geometry": { "type": "MultiLineString", "coordinates": [ [ [ -122.434442849106276, 37.732533994417565 ], [ -122.434992781965732, 37.732295287001378 ] ] ] } },
{ "type": "Feature", "properties": { "fid": 137 }, "geometry": { "type": "MultiLineString", "coordinates": [ [ [ -122.434992781965732, 37.732295287001378 ], [ -122.435457688734573, 37.73209348301522 ] ] ] } },
{ "type": "Feature", "properties": { "fid": 138 }, "geometry": { "type": "MultiLineString", "coordinates": [ [ [ -122.435457688734573, 37.73209348301522 ], [ -122.436678950247185, 37.731538394211448 ] ] ] } },
{ "type": "Feature", "properties": { "fid": 139 }, "geometry": { "type": "MultiLineString", "coordinates": [ [ [ -122.4357514998825, 37.773345711818095 ], [ -122.436158332830502, 37.773294060167188 ] ] ] } },
{ "type": "Feature", "properties": { "fid": 140 }, "geometry": { "type": "MultiLineString", "coordinates": [ [ [ -122.437422941051807, 37.773133492123485 ], [ -122.438237474686687, 37.773030062874518 ] ] ] } },
{ "type": "Feature", "properties": { "fid": 141 }, "geometry": { "type": "MultiLineString", "coordinates": [ [ [ -122.439088601425738, 37.772921980822417 ], [ -122.439557087569057, 37.772862486535018 ] ] ] } },
{ "type": "Feature", "properties": { "fid": 156 }, "geometry": { "type": "MultiLineString", "coordinates": [ [ [ -122.503126857871962, 37.725258972841544 ], [ -122.502859655843579, 37.725218088385894 ] ] ] } },
{ "type": "Feature", "properties": { "fid": 157 }, "geometry": { "type": "MultiLineString", "coordinates": [ [ [ -122.452318917504726, 37.772105470709427 ], [ -122.452437462821834, 37.77218917177639 ], [ -122.452587591925365, 37.772124424048108 ] ] ] } },
{ "type": "Feature", "properties": { "fid": 159 }, "geometry": { "type": "MultiLineString", "coordinates": [ [ [ -122.478294179377286, 37.766029677889478 ], [ -122.478346597126915, 37.765844838874926 ] ] ] } },
{ "type": "Feature", "properties": { "fid": 160 }, "geometry": { "type": "MultiLineString", "coordinates": [ [ [ -122.429566944964833, 37.734323178678594 ], [ -122.429661037793991, 37.734270903168387 ], [ -122.430368500901707, 37.733932557675622 ] ] ] } },
{ "type": "Feature", "properties": { "fid": 161 }, "geometry": { "type": "MultiLineString", "coordinates": [ [ [ -122.475273904086947, 37.734546307125406 ], [ -122.475292206149462, 37.734735704110562 ] ] ] } }
]
}
