{"type":"FeatureCollection","features":[{"type":"Feature","geometry":{"type":"MultiLineString","coordinates":[[[-122.393799,37.795168],[-122.394205,37.794867],[-122.394748,37.79448],[-122.426309,37.769603]]]},"properties":{"fid":1,"RouteName":"Ferry Building to Zoo","route_color":"green","stroke":"#0030ff","stroke-width":5}},{"type":"Feature","geometry":{"type":"MultiLineString","coordinates":[[[-122.426309,37.769603],[-122.426684,37.769534],[-122.428991,37.769394],[-122.429128,37.769456],[-122.43157,37.769307],[-122.431904,37.770964],[-122.433547,37.770755],[-122.433922,37.77262],[-122.453726,37.770098],[-122.454091,37.770058],[-122.454213,37.77006],[-122.454992,37.770203],[-122.455214,37.770314],[-122.455274,37.770361],[-122.455528,37.770312],[-122.455577,37.770389],[-122.455644,37.770657],[-122.455537,37.770774],[-122.455925,37.770888],[-122.456839,37.770992],[-122.457946,37.771133],[-122.459162,37.771314],[-122.460003,37.771451],[-122.461184,37.771625],[-122.462047,37.771776],[-122.463038,37.772024],[-122.464124,37.77232],[-122.464709,37.772465],[-122.465463,37.772599],[-122.465825,37.772609],[-122.468086,37.772524],[-122.468392,37.772477],[-122.468868,37.772384],[-122.469211,37.77225],[-122.469475,37.772091],[-122.470414,37.771437],[-122.471013,37.771059],[-122.47163,37.770778],[-122.471838,37.770708],[-122.472097,37.770704],[-122.472405,37.770734],[-122.472769,37.77084],[-122.473655,37.771156],[-122.473941,37.771258],[-122.474946,37.771624],[-122.475196,37.771686],[-122.475553,37.771711],[-122.476016,37.771687],[-122.476895,37.771529],[-122.477467,37.771396],[-122.47793,37.771245],[-122.478865,37.770854],[-122.479347,37.770682],[-122.479895,37.770496],[-122.479464,37.769877],[-122.47968,37.769926],[-122.479789,37.769927],[-122.47989,37.769912],[-122.480307,37.769776],[-122.480784,37.769662],[-122.481273,37.769598],[-122.48155,37.769517],[-122.48253,37.76914],[-122.483823,37.768716],[-122.484217,37.768631],[-122.484919,37.768471],[-122.48531,37.768379],[-122.485716,37.768348],[-122.486329,37.768283],[-122.486745,37.768216],[-122.487248,37.76812],[-122.487581,37.768063],[-122.487968,37.767985],[-122.488329,37.767899],[-122.488657,37.767788],[-122.488992,37.767657],[-122.490049,37.767182],[-122.491116,37.766691],[-122.491588,37.766518],[-122.492382,37.766232],[-122.492617,37.766174],[-122.492914,37.766144],[-122.493515,37.766262],[-122.494517,37.766371],[-122.495339,37.766429],[-122.495783,37.766421],[-122.496145,37.766361],[-122.496382,37.766257],[-122.496644,37.766093],[-122.497659,37.765502],[-122.498159,37.765264],[-122.498354,37.765142],[-122.498615,37.765045],[-122.499126,37.764872],[-122.499442,37.76478],[-122.499555,37.764762],[-122.499798,37.764745],[-122.500199,37.764759],[-122.500352,37.764773],[-122.500857,37.764846],[-122.502807,37.7652],[-122.502851,37.765222],[-122.504117,37.765526],[-122.505591,37.765476],[-122.506005,37.765441],[-122.506429,37.76538],[-122.506803,37.7653],[-122.507686,37.76504],[-122.507971,37.764938],[-122.508303,37.76482],[-122.508365,37.764796],[-122.50936,37.764403],[-122.509434,37.764231],[-122.509402,37.764033],[-122.510341,37.764001],[-122.506717,37.73547]]]},"properties":{"fid":2,"RouteName":"Ferry Building to Zoo","route_color":"green","stroke":"#0030ff","stroke-width":5}},{"type":"Feature","geometry":{"type":"MultiLineString","coordinates":[[[-122.455925,37.770888],[-122.45529,37.77093],[-122.454961,37.771132],[-122.454117,37.771463],[-122.453872,37.771578],[-122.452437,37.772189],[-122.452242,37.772181],[-122.43594,37.774277],[-122.435563,37.772418]]]},"properties":{"fid":3,"RouteName":"Ferry Building to Zoo","route_color":"green","stroke":"#0030ff","stroke-width":5}},{"type":"Feature","geometry":{"type":"MultiLineString","coordinates":[[[-122.426,37.806902],[-122.42578,37.806715],[-122.425628,37.806456],[-122.425488,37.80601],[-122.425477,37.805959],[-122.425299,37.805078],[-122.423655,37.805287],[-122.417897,37.776807],[-122.4178,37.776698],[-122.417501,37.776541],[-122.42262,37.772503],[-122.42013,37.746576],[-122.420358,37.746492],[-122.421977,37.743979],[-122.422669,37.743942],[-122.423286,37.742295],[-122.423945,37.740642],[-122.424147,37.739869],[-122.424379,37.738964],[-122.424625,37.738406],[-122.424989,37.737805],[-122.42551,37.737262],[-122.42656,37.736367],[-122.427822,37.735464],[-122.42852,37.735003],[-122.429446,37.734613],[-122.430034,37.734405],[-122.431364,37.733813],[-122.431595,37.733765],[-122.432476,37.733502],[-122.432974,37.733311],[-122.432714,37.733253],[-122.4324,37.733124],[-122.432204,37.732917],[-122.431966,37.73265],[-122.43189,37.732446],[-122.431685,37.731652],[-122.431393,37.731009],[-122.434219,37.730227],[-122.434472,37.730117],[-122.436372,37.727964],[-122.438272,37.724469],[-122.440947,37.720184],[-122.441401,37.719865],[-122.442552,37.719621],[-122.443086,37.719383],[-122.443696,37.718929],[-122.444191,37.71847],[-122.444706,37.717995],[-122.445246,37.717521],[-122.446945,37.716187],[-122.449823,37.713923]]]},"properties":{"fid":4,"RouteName":"Aquatic Park to Cayuga","route_color":"orange","stroke":"#0030ff","stroke-width":5}},{"type":"Feature","geometry":{"type":"MultiLineString","coordinates":[[[-122.476602,37.810681],[-122.476458,37.810205],[-122.476338,37.809907],[-122.47612,37.809472],[-122.475949,37.809344],[-122.475466,37.809189],[-122.474855,37.80906],[-122.474058,37.80897],[-122.473411,37.808974],[-122.473058,37.808957],[-122.472186,37.808817],[-122.471709,37.808647],[-122.471478,37.808512],[-122.471078,37.808363],[-122.470952,37.808282],[-122.470876,37.808102],[-122.470449,37.808006],[-122.470434,37.807911],[-122.470397,37.807776],[-122.470328,37.807624],[-122.47027,37.807534],[-122.470162,37.807414],[-122.470016,37.807301],[-122.469858,37.807182],[-122.469735,37.807112],[-122.469609,37.807021],[-122.468766,37.806311],[-122.468321,37.805964],[-122.466935,37.805058],[-122.466708,37.804944],[-122.466486,37.804887],[-122.465494,37.80469],[-122.465262,37.804655],[-122.464807,37.804607],[-122.464352,37.804587],[-122.463984,37.804586],[-122.461523,37.804704],[-122.461281,37.804709],[-122.460971,37.804675],[-122.453584,37.805616],[-122.452444,37.805744],[-122.452402,37.805777],[-122.450396,37.80603],[-122.448677,37.805067],[-122.448328,37.805126],[-122.447231,37.805272],[-122.442222,37.805915],[-122.436638,37.806626],[-122.436451,37.806634],[-122.436308,37.80662],[-122.436176,37.806591],[-122.436061,37.806554],[-122.435935,37.806497],[-122.433865,37.805188],[-122.433592,37.805143],[-122.433434,37.805156],[-122.432264,37.805313],[-122.432153,37.805321],[-122.432051,37.8053],[-122.431995,37.80526],[-122.431946,37.805165],[-122.431866,37.805142],[-122.431769,37.805089],[-122.431713,37.805003],[-122.431651,37.80494],[-122.431547,37.804895],[-122.431448,37.804883],[-122.431335,37.804888],[-122.431241,37.804923],[-122.431155,37.804992],[-122.431087,37.805088],[-122.431026,37.805171],[-122.430909,37.805248],[-122.430665,37.805357],[-122.430224,37.805489],[-122.430107,37.805564],[-122.430036,37.805654],[-122.430018,37.80575],[-122.430032,37.805864],[-122.430021,37.806071],[-122.429988,37.806147],[-122.429778,37.80643],[-122.429721,37.806518],[-122.429576,37.806797],[-122.429445,37.807141],[-122.429196,37.807433],[-122.428658,37.807825],[-122.428331,37.808087],[-122.428217,37.808107],[-122.428048,37.808111],[-122.427673,37.808099],[-122.427385,37.808078],[-122.42701,37.808047],[-122.426587,37.808087],[-122.426495,37.80768],[-122.426423,37.807472],[-122.426304,37.807242],[-122.426178,37.807083],[-122.426067,37.806964],[-122.426,37.806902],[-122.425738,37.806864],[-122.425532,37.806816],[-122.425273,37.806748],[-122.424963,37.806658],[-122.424729,37.806597],[-122.424527,37.806557],[-122.424299,37.806539],[-122.42408,37.80654],[-122.423858,37.806567],[-122.423641,37.806626],[-122.423398,37.806731],[-122.422187,37.807421],[-122.421819,37.807457],[-122.412524,37.808625],[-122.412168,37.808599],[-122.410497,37.808337],[-122.409198,37.808213],[-122.408867,37.808131],[-122.407566,37.807573],[-122.407129,37.807384],[-122.405752,37.806786],[-122.404534,37.80611],[-122.403512,37.805371],[-122.403187,37.805145],[-122.402147,37.804397],[-122.401734,37.803973],[-122.3991,37.801051],[-122.398946,37.800879],[-122.397623,37.799399],[-122.397474,37.799199],[-122.395361,37.796855],[-122.395157,37.796635],[-122.393799,37.795168],[-122.392533,37.793916],[-122.392331,37.793734],[-122.391223,37.79278],[-122.391022,37.792599],[-122.390886,37.792425],[-122.390753,37.792292],[-122.390561,37.791961],[-122.390378,37.791562],[-122.390164,37.791215],[-122.390014,37.791035],[-122.38982,37.79082],[-122.388477,37.789754],[-122.388291,37.789538],[-122.388032,37.78913],[-122.38793,37.788907],[-122.387868,37.788725],[-122.387738,37.78826],[-122.387662,37.787307],[-122.38767,37.787175],[-122.387709,37.786977],[-122.387862,37.784843],[-122.387893,37.784615],[-122.388096,37.781912],[-122.388109,37.781693],[-122.38776,37.781212],[-122.387528,37.778389],[-122.387719,37.778231],[-122.390373,37.777211],[-122.390535,37.777109],[-122.390428,37.777008],[-122.390049,37.7765],[-122.390025,37.7763],[-122.388128,37.776407],[-122.387898,37.776402],[-122.387848,37.776326],[-122.387736,37.775873],[-122.38751,37.773555],[-122.386884,37.772162],[-122.386577,37.771288],[-122.386544,37.771199],[-122.386515,37.77111],[-122.386489,37.771021],[-122.38645,37.770839],[-122.386103,37.766687],[-122.386615,37.765668],[-122.387606,37.764483],[-122.387917,37.764379],[-122.386939,37.754168],[-122.386568,37.750325],[-122.386112,37.745581],[-122.386013,37.745462],[-122.383287,37.743905],[-122.383074,37.743776],[-122.38198,37.743035],[-122.376998,37.740207],[-122.376889,37.740145],[-122.37911,37.73768],[-122.377404,37.736712],[-122.376805,37.735647],[-122.376745,37.73533],[-122.376844,37.734504],[-122.376974,37.733616]]]},"properties":{"fid":5,"RouteName":"Waterfront","route_color":"blue","stroke":"#0030ff","stroke-width":5}}]}
